OBJECT_NAME,OBJECT_ID,EPOCH,MEAN_MOTION,ECCENTRICITY,INCLINATION,RA_OF_ASC_NODE,ARG_OF_PERICENTER,MEAN_ANOMALY,EPHEMERIS_TYPE,CLASSIFICATION_TYPE,NORAD_CAT_ID,ELEMENT_SET_NO,REV_AT_EPOCH,BSTAR,MEAN_MOTION_DOT,MEAN_MOTION_DDOT
AEHF-4 (USA 288),2018-079A,2026-06-14T04:41:38.580288,1.00273481,.00604161,1.4311,3.7115,356.2554,265.4080,0,U,43651,999,2826,0,-.267E-5,0
BEIDOU-3 G1,2018-085A,2026-06-14T08:03:19.683072,1.00270499,.00081021,2.8597,97.4644,348.8004,97.1701,0,U,43683,999,2803,0,-.103E-5,0
GSAT-29,2018-089A,2026-06-14T03:06:06.033600,1.00272979,.00032883,0.0595,102.5515,334.3641,287.0889,0,U,43698,999,2775,0,.94E-6,0
ES'HAIL 2,2018-090A,2026-06-14T04:40:24.959712,1.00269087,.00015144,0.0008,357.8194,125.2169,235.3627,0,U,43700,999,2764,0,.153E-5,0
GEO-KOMPSAT-2A,2018-100A,2026-06-14T05:09:44.647776,1.00271962,.00017805,0.0501,131.7912,313.1596,23.2707,0,U,43823,999,2760,0,-.335E-5,0
GSAT-11,2018-100B,2026-06-14T04:02:21.687648,1.00270954,.00076295,0.0379,254.2662,193.1574,309.6415,0,U,43824,999,2744,0,-.68E-6,0
GSAT-7A,2018-105A,2026-06-14T01:25:43.785120,1.00269941,.00018967,0.0185,18.6195,43.0123,284.9262,0,U,43864,999,2741,0,0,0
COSMOS 2533,2018-107A,2026-06-13T22:45:44.173152,1.00269402,.0000401,0.0482,109.9509,25.8569,177.8646,0,U,43867,999,2741,0,-.28E-6,0
TJS-3,2018-110A,2026-06-13T16:59:53.125728,1.00271262,.0002088,2.5355,80.5324,83.2147,141.5040,0,U,43874,999,2738,0,-.207E-5,0
ZHONGXING-2D,2019-001A,2026-06-14T05:10:14.600064,1.00272902,.00014572,0.0380,249.1392,89.8263,131.1262,0,U,43920,999,5405,0,-.328E-5,0
HELLAS-SAT 4 & SGS-1,2019-007A,2026-06-14T04:44:17.088864,1.00270092,.00051233,0.0737,130.9300,9.1586,232.5197,0,U,44034,999,2733,0,.161E-5,0
GSAT-31,2019-007B,2026-06-14T04:46:46.850304,1.00272908,.00017725,0.0729,260.4030,101.3523,20.2635,0,U,44035,999,2693,0,.134E-5,0
NUSANTARA SATU,2019-009A,2026-06-13T14:59:38.885568,1.00270503,.000434,0.0423,155.7271,324.3331,152.7984,0,U,44048,999,2673,0,-.223E-5,0
ZHONGXING-6C,2019-012A,2026-06-14T05:10:22.088352,1.00272680,.00136457,0.1107,79.0513,331.3338,60.1399,0,U,44067,999,2671,0,-.327E-5,0
WGS 10 (USA 291),2019-014A,2026-06-13T23:42:21.916224,1.00270521,.00005071,0.0255,13.2515,293.6351,11.3086,0,U,44071,999,2658,0,0,0
TIANLIAN 2-01,2019-017A,2026-06-14T00:40:38.645184,1.00270561,.00006422,0.5317,83.1130,28.6579,237.7405,0,U,44076,999,2661,0,-.97E-6,0
ARABSAT-6A,2019-021A,2026-06-14T04:41:47.329152,1.00270893,.00015353,0.0545,14.4456,352.8875,356.1228,0,U,44186,999,2612,0,.162E-5,0
BEIDOU-3 IGSO-1,2019-023A,2026-06-06T22:54:10.040832,1.00294886,.00254341,58.6799,37.7569,225.6649,92.8731,0,U,44204,999,710,0,-.215E-5,0
BEIDOU-2 G8,2019-027A,2026-06-14T00:06:19.618272,1.00271814,.00102463,1.6486,74.5003,282.2014,51.7359,0,U,44231,999,2604,0,-.239E-5,0
YAMAL 601,2019-031A,2026-06-14T04:47:01.826016,1.00269968,.00023246,0.0167,18.7694,68.1790,296.3215,0,U,44307,999,2589,0,.129E-5,0
AT&T T-16,2019-034A,2026-06-13T21:13:39.826272,1.00269989,.0000887,0.0190,56.6301,237.6114,185.5149,0,U,44333,999,2560,0,-.105E-5,0
EUTELSAT 7C,2019-034B,2026-06-13T21:44:29.213088,1.00270799,.0002949,0.0735,173.6159,253.4099,168.3144,0,U,44334,999,680,0,.58E-6,0
BEIDOU-3 IGSO-2,2019-035A,2026-06-13T14:12:59.719968,1.00267282,.0039933,55.2457,158.8942,216.5217,219.5102,0,U,44337,999,2563,0,-.57E-6,0
COSMOS 2539,2019-048A,2026-06-14T02:53:52.207296,1.00269064,.00001029,0.0411,95.2978,301.8308,280.7592,0,U,44457,999,2519,0,.9E-6,0
EDRS-C,2019-049A,2026-06-13T22:23:08.075040,1.00270297,.0000044,0.0174,74.2724,71.2487,235.0179,0,U,44475,999,2517,0,-.252E-5,0
INTELSAT 39 (IS-39),2019-049B,2026-06-13T11:44:09.700224,1.00270508,.00008762,0.0017,349.3933,319.9486,190.4512,0,U,44476,999,2509,0,.45E-6,0
AMOS-17,2019-050A,2026-06-14T04:37:55.200000,1.00271729,.00015661,0.0197,323.4032,154.8246,230.7327,0,U,44479,999,2515,0,.118E-5,0
AEHF-5 (USA 292),2019-051A,2026-06-14T01:34:27.948000,1.00274691,.00663783,1.4575,335.9634,0.1901,42.8623,0,U,44481,999,2523,0,-.248E-5,0
EUTELSAT 5 WEST B,2019-067A,2026-06-14T04:31:40.797696,1.00271982,.00028888,0.0628,359.8766,81.9960,243.5604,0,U,44624,999,2440,0,-.33E-6,0
TJS-4,2019-070A,2026-06-14T01:31:35.723424,1.00267689,.00044336,0.0245,14.1247,26.2732,328.3505,0,U,44637,999,2450,0,0,0
BEIDOU-3 IGSO-3,2019-073A,2026-05-16T19:27:04.075776,1.00246251,.0042953,54.8566,281.2355,189.4588,170.3676,0,U,44709,999,2414,0,-.217E-5,0
TIBA-1,2019-080A,2026-06-14T04:43:17.185152,1.00269156,.00017785,0.0519,3.0969,91.8852,273.8313,0,U,44800,999,2402,0,.164E-5,0
