AEHF-4 (USA 288)        
1 43651U 18079A   26165.19558542 -.00000267  00000+0  00000+0 0  9997
2 43651   1.4311   3.7115 0060416 356.2554 265.4080  1.00273481 28264
BEIDOU-3 G1             
1 43683U 18085A   26165.33564448 -.00000103  00000+0  00000+0 0  9996
2 43683   2.8597  97.4644 0008102 348.8004  97.1701  1.00270499 28039
GSAT-29                 
1 43698U 18089A   26165.12923650  .00000094  00000+0  00000+0 0  9995
2 43698   0.0595 102.5515 0003288 334.3641 287.0889  1.00272979 27755
ES'HAIL 2               
1 43700U 18090A   26165.19473333  .00000153  00000+0  00000+0 0  9992
2 43700   0.0008 357.8194 0001514 125.2169 235.3627  1.00269087 27648
GEO-KOMPSAT-2A          
1 43823U 18100A   26165.21510009 -.00000335  00000+0  00000+0 0  9998
2 43823   0.0501 131.7912 0001780 313.1596  23.2707  1.00271962 27600
GSAT-11                 
1 43824U 18100B   26165.16830657 -.00000068  00000+0  00000+0 0  9990
2 43824   0.0379 254.2662 0007629 193.1574 309.6415  1.00270954 27446
GSAT-7A                 
1 43864U 18105A   26165.05953455  .00000000  00000+0  00000+0 0  9994
2 43864   0.0185  18.6195 0001896  43.0123 284.9262  1.00269941 27417
COSMOS 2533             
1 43867U 18107A   26164.94842793 -.00000028  00000+0  00000+0 0  9999
2 43867   0.0482 109.9509 0000401  25.8569 177.8646  1.00269402 27414
TJS-3                   
1 43874U 18110A   26164.70825377 -.00000207  00000+0  00000+0 0  9993
2 43874   2.5355  80.5324 0002088  83.2147 141.5040  1.00271262 27389
ZHONGXING-2D            
1 43920U 19001A   26165.21544676 -.00000328  00000+0  00000+0 0  9996
2 43920   0.0380 249.1392 0001457  89.8263 131.1262  1.00272902 54057
HELLAS-SAT 4 & SGS-1    
1 44034U 19007A   26165.19742001  .00000161  00000+0  00000+0 0  9992
2 44034   0.0737 130.9300 0005123   9.1586 232.5197  1.00270092 27335
GSAT-31                 
1 44035U 19007B   26165.19915336  .00000134  00000+0  00000+0 0  9996
2 44035   0.0729 260.4030 0001772 101.3523  20.2635  1.00272908 26930
NUSANTARA SATU          
1 44048U 19009A   26164.62475562 -.00000223  00000+0  00000+0 0  9991
2 44048   0.0423 155.7271 0004340 324.3331 152.7984  1.00270503 26731
ZHONGXING-6C            
1 44067U 19012A   26165.21553343 -.00000327  00000+0  00000+0 0  9991
2 44067   0.1107  79.0513 0013645 331.3338  60.1399  1.00272680 26710
WGS 10 (USA 291)        
1 44071U 19014A   26164.98775366  .00000000  00000+0  00000+0 0  9999
2 44071   0.0255  13.2515 0000507 293.6351  11.3086  1.00270521 26586
TIANLIAN 2-01           
1 44076U 19017A   26165.02822506 -.00000097  00000+0  00000+0 0  9999
2 44076   0.5317  83.1130 0000642  28.6579 237.7405  1.00270561 26619
ARABSAT-6A              
1 44186U 19021A   26165.19568668  .00000162  00000+0  00000+0 0  9992
2 44186   0.0545  14.4456 0001535 352.8875 356.1228  1.00270893 26123
BEIDOU-3 IGSO-1         
1 44204U 19023A   26157.95428288 -.00000215  00000+0  00000+0 0  9993
2 44204  58.6799  37.7569 0025434 225.6649  92.8731  1.00294886  7105
BEIDOU-2 G8             
1 44231U 19027A   26165.00439373 -.00000239  00000+0  00000+0 0  9995
2 44231   1.6486  74.5003 0010246 282.2014  51.7359  1.00271814 26048
YAMAL 601               
1 44307U 19031A   26165.19932669  .00000129  00000+0  00000+0 0  9997
2 44307   0.0167  18.7694 0002324  68.1790 296.3215  1.00269968 25894
AT&T T-16               
1 44333U 19034A   26164.88448873 -.00000105  00000+0  00000+0 0  9998
2 44333   0.0190  56.6301 0000887 237.6114 185.5149  1.00269989 25607
EUTELSAT 7C             
1 44334U 19034B   26164.90589367  .00000058  00000+0  00000+0 0  9992
2 44334   0.0735 173.6159 0002949 253.4099 168.3144  1.00270799  6809
BEIDOU-3 IGSO-2         
1 44337U 19035A   26164.59235787 -.00000057  00000+0  00000+0 0  9995
2 44337  55.2457 158.8942 0039933 216.5217 219.5102  1.00267282 25633
COSMOS 2539             
1 44457U 19048A   26165.12074314  .00000090  00000+0  00000+0 0  9995
2 44457   0.0411  95.2978 0000102 301.8308 280.7592  1.00269064 25196
EDRS-C                  
1 44475U 19049A   26164.93273235 -.00000252  00000+0  00000+0 0  9998
2 44475   0.0174  74.2724 0000044  71.2487 235.0179  1.00270297 25171
INTELSAT 39 (IS-39)     
1 44476U 19049B   26164.48900116  .00000045  00000+0  00000+0 0  9993
2 44476   0.0017 349.3933 0000876 319.9486 190.4512  1.00270508 25091
AMOS-17                 
1 44479U 19050A   26165.19300000  .00000118  00000+0  00000+0 0  9994
2 44479   0.0197 323.4032 0001566 154.8246 230.7327  1.00271729 25158
AEHF-5 (USA 292)        
1 44481U 19051A   26165.06560125 -.00000248  00000+0  00000+0 0  9995
2 44481   1.4575 335.9634 0066378   0.1901  42.8623  1.00274691 25236
EUTELSAT 5 WEST B       
1 44624U 19067A   26165.18866664 -.00000033  00000+0  00000+0 0  9993
2 44624   0.0628 359.8766 0002888  81.9960 243.5604  1.00271982 24405
TJS-4                   
1 44637U 19070A   26165.06360791  .00000000  00000+0  00000+0 0  9991
2 44637   0.0245  14.1247 0004433  26.2732 328.3505  1.00267689 24508
BEIDOU-3 IGSO-3         
1 44709U 19073A   26136.81046384 -.00000217  00000+0  00000+0 0  9995
2 44709  54.8566 281.2355 0042953 189.4588 170.3676  1.00246251 24144
TIBA-1                  
1 44800U 19080A   26165.19672668  .00000164  00000+0  00000+0 0  9998
2 44800   0.0519   3.0969 0001778  91.8852 273.8313  1.00269156 24021
